STARLINK-1620
1 16149C 20057AJ  21326.13144417  .00000464  00000-0  31092-4 0  3264
2 16149  53.0521 138.1566 0001989  63.4531 192.0519 15.06398125    19
